{
  "type": "FeatureCollection",
  "features": [
    {
      "type": "Feature",
      "properties": {
        "norad_id": 39773,
        "name": "EUTELSAT 3B",
        "group": "eutelsat",
        "lat": -0.07496844712189515,
        "lon": -115.51372128839476,
        "alt_km": 35768.890254855076,
        "timestamp": "2025-12-25T09:48:51.957508+00:00",
        "meta_object_name": "EUTELSAT 3B",
        "meta_object_id": "2014-030A",
        "meta_epoch": "2025-12-24T23:23:11.959008",
        "meta_mean_motion": 1.00269922,
        "meta_eccentricity": 0.000425,
        "meta_inclination": 0.0605,
        "meta_ra_of_asc_node": 349.0634,
        "meta_arg_of_pericenter": 245.9428,
        "meta_mean_anomaly": 212.637,
        "meta_ephemeris_type": 0,
        "meta_classification_type": "U",
        "meta_norad_cat_id": 39773,
        "meta_element_set_no": 999,
        "meta_rev_at_epoch": 4232,
        "meta_bstar": 0,
        "meta_mean_motion_dot": 4.1e-07,
        "meta_mean_motion_ddot": 0,
        "tle_line1": "1 39773U 14030A   25358.97444397  .00000041  00000+0  00000+0 0  9990",
        "tle_line2": "2 39773   0.0605 349.0634 0004250 245.9428 212.6370  1.00269922 42329"
      },
      "geometry": {
        "type": "Point",
        "coordinates": [
          -115.51372128839476,
          -0.07496844712189515
        ]
      }
    },
    {
      "type": "Feature",
      "properties": {
        "norad_id": 40425,
        "name": "EUTELSAT 115 WEST B",
        "group": "eutelsat",
        "lat": -0.011004675598592889,
        "lon": 126.46999755518911,
        "alt_km": 35786.45437759364,
        "timestamp": "2025-12-25T09:48:51.957520+00:00",
        "meta_object_name": "EUTELSAT 115 WEST B",
        "meta_object_id": "2015-010B",
        "meta_epoch": "2025-12-24T09:59:58.343136",
        "meta_mean_motion": 1.00271259,
        "meta_eccentricity": 1.435e-05,
        "meta_inclination": 0.0435,
        "meta_ra_of_asc_node": 188.915,
        "meta_arg_of_pericenter": 182.2118,
        "meta_mean_anomaly": 117.1483,
        "meta_ephemeris_type": 0,
        "meta_classification_type": "U",
        "meta_norad_cat_id": 40425,
        "meta_element_set_no": 999,
        "meta_rev_at_epoch": 3964,
        "meta_bstar": 0,
        "meta_mean_motion_dot": -4e-08,
        "meta_mean_motion_ddot": 0,
        "tle_line1": "1 40425U 15010B   25358.41664749 -.00000004  00000+0  00000+0 0  9999",
        "tle_line2": "2 40425   0.0435 188.9150 0000143 182.2118 117.1483  1.00271259 39646"
      },
      "geometry": {
        "type": "Point",
        "coordinates": [
          126.46999755518911,
          -0.011004675598592889
        ]
      }
    },
    {
      "type": "Feature",
      "properties": {
        "norad_id": 40875,
        "name": "EUTELSAT 8 WEST B",
        "group": "eutelsat",
        "lat": -0.05913317655838166,
        "lon": -126.65545153808455,
        "alt_km": 35772.75782103249,
        "timestamp": "2025-12-25T09:48:51.957532+00:00",
        "meta_object_name": "EUTELSAT 8 WEST B",
        "meta_object_id": "2015-039B",
        "meta_epoch": "2025-12-24T23:19:57.271296",
        "meta_mean_motion": 1.00271306,
        "meta_eccentricity": 0.0004225,
        "meta_inclination": 0.0642,
        "meta_ra_of_asc_node": 8.6707,
        "meta_arg_of_pericenter": 265.859,
        "meta_mean_anomaly": 161.1959,
        "meta_ephemeris_type": 0,
        "meta_classification_type": "U",
        "meta_norad_cat_id": 40875,
        "meta_element_set_no": 999,
        "meta_rev_at_epoch": 3791,
        "meta_bstar": 0,
        "meta_mean_motion_dot": -4.5e-07,
        "meta_mean_motion_ddot": 0,
        "tle_line1": "1 40875U 15039B   25358.97219064 -.00000045  00000+0  00000+0 0  9991",
        "tle_line2": "2 40875   0.0642   8.6707 0004225 265.8590 161.1959  1.00271306 37916"
      },
      "geometry": {
        "type": "Point",
        "coordinates": [
          -126.65545153808455,
          -0.05913317655838166
        ]
      }
    },
    {
      "type": "Feature",
      "properties": {
        "norad_id": 41310,
        "name": "EUTELSAT 9B",
        "group": "eutelsat",
        "lat": -0.028097556532973075,
        "lon": -109.61953163615762,
        "alt_km": 35767.876172180964,
        "timestamp": "2025-12-25T09:48:51.957544+00:00",
        "meta_object_name": "EUTELSAT 9B",
        "meta_object_id": "2016-005A",
        "meta_epoch": "2025-12-24T06:17:44.244960",
        "meta_mean_motion": 1.00272813,
        "meta_eccentricity": 0.00045278,
        "meta_inclination": 0.023,
        "meta_ra_of_asc_node": 38.5865,
        "meta_arg_of_pericenter": 233.3148,
        "meta_mean_anomaly": 284.5874,
        "meta_ephemeris_type": 0,
        "meta_classification_type": "U",
        "meta_norad_cat_id": 41310,
        "meta_element_set_no": 999,
        "meta_rev_at_epoch": 3636,
        "meta_bstar": 0,
        "meta_mean_motion_dot": 8.3e-07,
        "meta_mean_motion_ddot": 0,
        "tle_line1": "1 41310U 16005A   25358.26231765  .00000083  00000+0  00000+0 0  9995",
        "tle_line2": "2 41310   0.0230  38.5865 0004527 233.3148 284.5874  1.00272813 36363"
      },
      "geometry": {
        "type": "Point",
        "coordinates": [
          -109.61953163615762,
          -0.028097556532973075
        ]
      }
    },
    {
      "type": "Feature",
      "properties": {
        "norad_id": 41382,
        "name": "EUTELSAT 65 WEST A",
        "group": "eutelsat",
        "lat": -0.00752555420066346,
        "lon": 176.17366940186056,
        "alt_km": 35787.863169752556,
        "timestamp": "2025-12-25T09:48:51.957581+00:00",
        "meta_object_name": "EUTELSAT 65 WEST A",
        "meta_object_id": "2016-014A",
        "meta_epoch": "2025-12-24T19:38:18.500352",
        "meta_mean_motion": 1.00272022,
        "meta_eccentricity": 0.00022735,
        "meta_inclination": 0.0488,
        "meta_ra_of_asc_node": 342.9947,
        "meta_arg_of_pericenter": 293.8547,
        "meta_mean_anomaly": 46.1348,
        "meta_ephemeris_type": 0,
        "meta_classification_type": "U",
        "meta_norad_cat_id": 41382,
        "meta_element_set_no": 999,
        "meta_rev_at_epoch": 3578,
        "meta_bstar": 0,
        "meta_mean_motion_dot": -2.55e-06,
        "meta_mean_motion_ddot": 0,
        "tle_line1": "1 41382U 16014A   25358.81826968 -.00000255  00000+0  00000+0 0  9992",
        "tle_line2": "2 41382   0.0488 342.9947 0002273 293.8547  46.1348  1.00272022 35785"
      },
      "geometry": {
        "type": "Point",
        "coordinates": [
          176.17366940186056,
          -0.00752555420066346
        ]
      }
    },
    {
      "type": "Feature",
      "properties": {
        "norad_id": 41589,
        "name": "EUTELSAT 117 WEST B",
        "group": "eutelsat",
        "lat": -0.005133080099383821,
        "lon": 124.38622737546083,
        "alt_km": 35786.98645198543,
        "timestamp": "2025-12-25T09:48:51.957594+00:00",
        "meta_object_name": "EUTELSAT 117 WEST B",
        "meta_object_id": "2016-038B",
        "meta_epoch": "2025-12-24T09:59:01.014144",
        "meta_mean_motion": 1.00277873,
        "meta_eccentricity": 6.384e-05,
        "meta_inclination": 0.0094,
        "meta_ra_of_asc_node": 154.0765,
        "meta_arg_of_pericenter": 139.5473,
        "meta_mean_anomaly": 192.3072,
        "meta_ephemeris_type": 0,
        "meta_classification_type": "U",
        "meta_norad_cat_id": 41589,
        "meta_element_set_no": 999,
        "meta_rev_at_epoch": 3491,
        "meta_bstar": 0,
        "meta_mean_motion_dot": 9e-08,
        "meta_mean_motion_ddot": 0,
        "tle_line1": "1 41589U 16038B   25358.41598396  .00000009  00000+0  00000+0 0  9990",
        "tle_line2": "2 41589   0.0094 154.0765 0000638 139.5473 192.3072  1.00277873 34915"
      },
      "geometry": {
        "type": "Point",
        "coordinates": [
          124.38622737546083,
          -0.005133080099383821
        ]
      }
    },
    {
      "type": "Feature",
      "properties": {
        "norad_id": 42741,
        "name": "EUTELSAT 172B",
        "group": "eutelsat",
        "lat": -0.008271076673311723,
        "lon": 53.376142356420836,
        "alt_km": 35786.40346317227,
        "timestamp": "2025-12-25T09:48:51.957606+00:00",
        "meta_object_name": "EUTELSAT 172B",
        "meta_object_id": "2017-029B",
        "meta_epoch": "2025-12-24T22:28:24.706848",
        "meta_mean_motion": 1.00270189,
        "meta_eccentricity": 1.3e-05,
        "meta_inclination": 0.0321,
        "meta_ra_of_asc_node": 134.3587,
        "meta_arg_of_pericenter": 357.8756,
        "meta_mean_anomaly": 110.5732,
        "meta_ephemeris_type": 0,
        "meta_classification_type": "U",
        "meta_norad_cat_id": 42741,
        "meta_element_set_no": 999,
        "meta_rev_at_epoch": 3198,
        "meta_bstar": 0,
        "meta_mean_motion_dot": 1.5e-07,
        "meta_mean_motion_ddot": 0,
        "tle_line1": "1 42741U 17029B   25358.93639707  .00000015  00000+0  00000+0 0  9998",
        "tle_line2": "2 42741   0.0321 134.3587 0000130 357.8756 110.5732  1.00270189 31980"
      },
      "geometry": {
        "type": "Point",
        "coordinates": [
          53.376142356420836,
          -0.008271076673311723
        ]
      }
    }
  ]
}